#aV2009  1 15  0  0   .00000000      96 DD+AD WGS84 FIT  NGA
## 1514 345600.00000000   900.00000000 54846  .0000000000000
+   31     2  3  4  5  6  7  8  9 10 11 12 13 14 15 16 17 18
+         19 20 21 22 23 24 25 26 27 28 29 30 31 32  0  0  0
+          0  0  0  0  0  0  0  0  0  0  0  0  0  0  0  0  0
+          0  0  0  0  0  0  0  0  0  0  0  0  0  0  0  0  0
+          0  0  0  0  0  0  0  0  0  0  0  0  0  0  0  0  0
++         0  0  0  0  0  0  0  0  0  0  0  0  0  0  0  0  0
++         0  0  0  0  0  0  0  0  0  0  0  0  0  0  0  0  0
++         0  0  0  0  0  0  0  0  0  0  0  0  0  0  0  0  0
++         0  0  0  0  0  0  0  0  0  0  0  0  0  0  0  0  0
++         0  0  0  0  0  0  0  0  0  0  0  0  0  0  0  0  0
%c cc cc ccc ccc cccc cccc cccc cccc ccccc ccccc ccccc ccccc
%c cc cc ccc ccc cccc cccc cccc cccc ccccc ccccc ccccc ccccc
%f  0.0000000  0.000000000  0.00000000000  0.000000000000000
%f  0.0000000  0.000000000  0.00000000000  0.000000000000000
%i    0    0    0    0      0      0      0      0         0
%i    0    0    0    0      0      0      0      0         0
/*      NGA, ST. LOUIS,MO.                                  
/*   EPHEMERIS COMPUTED FROM  3 DAYS OF DATA                
/* CCCCCCCCCCCCCCCCCCCCCCCCCCCCCCCCCCCCCCCCCCCCCCCCCCCCCCCCC
/* CCCCCCCCCCCCCCCCCCCCCCCCCCCCCCCCCCCCCCCCCCCCCCCCCCCCCCCCC
*  2009  1 15 17  0   .00000000                                                 
P  2  -6919.264850 -19319.255230  16940.063480    161.505896                    
V  2  19141.108254  10318.314856  19056.237976      -.017940                    
P  3   1252.591144  17297.588169 -20335.101571    339.333855                    
V  3 -22158.137094  12448.258840   9718.734535       .053638                    
P  4   8213.477974 -13254.148193  21365.230595   -300.847751                    
V  4  22852.148049  15331.740856   1091.191545      -.134196                    
P  5 -14499.076197  -9762.826865  19735.597287   -548.365025                    
V  5    645.533055 -25754.043924 -11963.651749      -.564098                    
P  6  -4664.268520  18191.201517 -18588.185183     91.356636                    
V  6 -22044.403176   9886.189570  15081.053385      -.121751                    
P  7  22546.494794   3866.822624 -13604.869799     23.319344                    
V  7  13123.525193  11294.622456  24881.536117      -.001594                    
P  8  14822.395747  -6368.101452 -21255.962435   -186.485861                    
V  8  21001.499444  16454.150776   9259.520016      -.015897                    
P  9 -21565.976519 -15491.433929  -2497.002124     35.148015                    
V  9   3205.226396   -648.152809 -31780.567346       .019573                    
P 10  -2420.791917 -25391.815435  -6890.999104     -9.563986                    
V 10   3745.713343  -8318.388421  30321.359302      -.006474                    
P 11  24045.278180  11582.925082  -1980.162507     10.444306                    
V 11  -3901.266842   3463.507837 -29744.462910      -.011307                    
P 12 -12270.298859 -13810.169842  19196.081070   -325.285030                    
V 12   2998.928897 -24010.088006 -15314.918877       .033553                    
P 13  24605.735495  -4052.908538   9012.734309    285.070810                    
V 13 -10037.909493   5981.384870  29721.096404       .014369                    
P 14 -18799.178572  15722.246275  10220.313437   -167.879469                    
V 14 -12407.905390   3595.409694 -28799.143982       .051793                    
P 15 -11025.121124 -11278.143795 -21342.146540   -242.580399                    
V 15  24044.986755 -12692.345312  -5661.066938      -.055903                    
P 16  -2220.935126  26343.726903   -272.662809     81.799832                    
V 16  -2819.743130    164.171260  32050.921513      -.026676                    
P 17  20331.473527 -15257.697636   7409.200421     44.356149                    
V 17   9707.546766  -1421.978784 -29941.074580       .010497                    
P 18 -15314.052763   7770.924917 -19959.550581    -92.818691                    
V 18   1255.119889 -25972.203295 -11319.251403       .036962                    
P 19  12390.518663  10830.211077 -20829.753260     33.792809                    
V 19 -24375.106952  10562.526892  -8758.867607      -.004577                    
P 20  13903.793112  10587.444016  19892.168312     93.588317                    
V 20  -2496.011932  25480.943783 -11697.187486      -.009945                    
P 21 -21069.557324   -133.023232 -16298.955768     33.735847                    
V 21 -15942.454580 -13755.686808  19821.472319      -.017545                    
P 22 -11861.135329  19547.255702 -13309.472508    206.585613                    
V 22   -875.944273 -17423.060279 -24574.455885      -.005722                    
P 23  20593.036329   2726.119024  16657.138770    385.133401                    
V 23 -18379.782312  10489.896744  20684.008851       .008112                    
P 24 -22722.124561 -12296.529959  -5364.705049    157.795391                    
V 24  -3660.434393  -6860.238268  30715.282184       .029613                    
P 25  24234.595603   8100.395627  -6521.384611    175.924041                    
V 25   6425.210535   6577.881222  30560.899031       .265417                    
P 26  -4200.692393 -14179.325283 -22543.824202     36.413677                    
V 26  25285.971536 -10393.089042   2383.569718       .034450                    
P 27  10523.711808 -10641.108800 -21297.370856     16.508382                    
V 27  24408.547976  14876.743536   4398.890491       .030501                    
P 28  12155.150534 -17748.138384 -14942.269395    -23.761448                    
V 28    281.250089  19960.668130 -23178.569108       .000537                    
P 29 -24319.252226   3274.408858  10223.107163    -17.908340                    
V 29  10625.820159  -7646.819589  28039.877720       .027780                    
P 30 -15264.405025    380.699341  21371.234169    119.971618                    
V 30    665.297599 -28023.689781   1041.065598       .023339                    
P 31  -4962.183188  14633.713256  21804.265721    -47.819958                    
V 31 -22780.358003 -14795.167902   4911.350925      -.014661                    
P 32   9093.492605  18608.311565  17170.692061    303.306543                    
V 32  -4631.827480  20438.385793 -19959.652473      -.026909                    
EOF
